STARLINK-3681           
1 51968U 22025N   26068.19709843  .00000369  00000+0  25123-4 0  9997
2 51968  53.1573  26.5377 0001542  77.2671 282.8502 15.29349023220949
TOMORROW-S4             
1 62386U 24247K   26068.53305366  .00012677  00000+0  46927-3 0  9990
2 62386  44.9818 117.9996 0004434 210.4078 149.6548 15.27717249 67702
