[{"OBJECT_NAME":"STARLINK-3681","OBJECT_ID":"2022-025N","EPOCH":"2026-03-09T04:43:49.304352","MEAN_MOTION":15.29349023,"ECCENTRICITY":0.00015422,"INCLINATION":53.1573,"RA_OF_ASC_NODE":26.5377,"ARG_OF_PERICENTER":77.2671,"MEAN_ANOMALY":282.8502,"EPHEMERIS_TYPE":0,"CLASSIFICATION_TYPE":"U","NORAD_CAT_ID":51968,"ELEMENT_SET_NO":999,"REV_AT_EPOCH":22094,"BSTAR":2.5123415e-5,"MEAN_MOTION_DOT":3.69e-6,"MEAN_MOTION_DDOT":0},{"OBJECT_NAME":"TOMORROW-S4","OBJECT_ID":"2024-247K","EPOCH":"2026-03-09T12:47:35.836224","MEAN_MOTION":15.27717249,"ECCENTRICITY":0.00044343,"INCLINATION":44.9818,"RA_OF_ASC_NODE":117.9996,"ARG_OF_PERICENTER":210.4078,"MEAN_ANOMALY":149.6548,"EPHEMERIS_TYPE":0,"CLASSIFICATION_TYPE":"U","NORAD_CAT_ID":62386,"ELEMENT_SET_NO":999,"REV_AT_EPOCH":6770,"BSTAR":0.00046927249,"MEAN_MOTION_DOT":0.00012677,"MEAN_MOTION_DDOT":0}]
